{
  "type": "FeatureCollection",
  "features": [
    {
      "type": "Feature",
      "properties": {
        "norad_id": 50032,
        "name": "COSMOS 1408 DEB",
        "group": "cosmos-1408-debris",
        "lat": 12.927289543262443,
        "lon": -134.69596215046283,
        "alt_km": 419.2059351856469,
        "timestamp": "2025-12-23T22:42:33.254807+00:00",
        "meta_object_name": "COSMOS 1408 DEB",
        "meta_object_id": "1982-092RU",
        "meta_epoch": "2025-12-23T04:54:00.638784",
        "meta_mean_motion": 15.45793948,
        "meta_eccentricity": 0.00163136,
        "meta_inclination": 82.563,
        "meta_ra_of_asc_node": 47.7829,
        "meta_arg_of_pericenter": 169.8241,
        "meta_mean_anomaly": 190.3342,
        "meta_ephemeris_type": 0,
        "meta_classification_type": "U",
        "meta_norad_cat_id": 50032,
        "meta_element_set_no": 999,
        "meta_rev_at_epoch": 22765,
        "meta_bstar": 0.00010744328,
        "meta_mean_motion_dot": 5.269e-05,
        "meta_mean_motion_ddot": 0,
        "tle_line1": "1 50032U 82092RU  25357.20417406  .00005269  00000+0  10744-3 0  9997",
        "tle_line2": "2 50032  82.5630  47.7829 0016313 169.8241 190.3342 15.45793948227657"
      },
      "geometry": {
        "type": "Point",
        "coordinates": [
          -134.69596215046283,
          12.927289543262443
        ]
      }
    },
    {
      "type": "Feature",
      "properties": {
        "norad_id": 50058,
        "name": "COSMOS 1408 DEB",
        "group": "cosmos-1408-debris",
        "lat": 40.64837955049095,
        "lon": 64.00408772122555,
        "alt_km": 360.651387382748,
        "timestamp": "2025-12-23T22:42:33.254828+00:00",
        "meta_object_name": "COSMOS 1408 DEB",
        "meta_object_id": "1982-092SW",
        "meta_epoch": "2025-12-23T04:07:00.859872",
        "meta_mean_motion": 15.64713,
        "meta_eccentricity": 0.00159845,
        "meta_inclination": 82.6118,
        "meta_ra_of_asc_node": 58.4192,
        "meta_arg_of_pericenter": 63.7743,
        "meta_mean_anomaly": 296.5157,
        "meta_ephemeris_type": 0,
        "meta_classification_type": "U",
        "meta_norad_cat_id": 50058,
        "meta_element_set_no": 999,
        "meta_rev_at_epoch": 22967,
        "meta_bstar": 0.00034025417,
        "meta_mean_motion_dot": 0.00033308,
        "meta_mean_motion_ddot": 0,
        "tle_line1": "1 50058U 82092SW  25357.17153773  .00033308  00000+0  34025-3 0  9998",
        "tle_line2": "2 50058  82.6118  58.4192 0015984  63.7743 296.5157 15.64713000229670"
      },
      "geometry": {
        "type": "Point",
        "coordinates": [
          64.00408772122555,
          40.64837955049095
        ]
      }
    },
    {
      "type": "Feature",
      "properties": {
        "norad_id": 50404,
        "name": "COSMOS 1408 DEB",
        "group": "cosmos-1408-debris",
        "lat": -52.22037230599248,
        "lon": -166.63746089269014,
        "alt_km": 622.4443259415602,
        "timestamp": "2025-12-23T22:42:33.254841+00:00",
        "meta_object_name": "COSMOS 1408 DEB",
        "meta_object_id": "1982-092ADS",
        "meta_epoch": "2025-12-23T00:45:48.911904",
        "meta_mean_motion": 15.15350794,
        "meta_eccentricity": 0.01677821,
        "meta_inclination": 82.2023,
        "meta_ra_of_asc_node": 204.4845,
        "meta_arg_of_pericenter": 163.5527,
        "meta_mean_anomaly": 197.1246,
        "meta_ephemeris_type": 0,
        "meta_classification_type": "U",
        "meta_norad_cat_id": 50404,
        "meta_element_set_no": 999,
        "meta_rev_at_epoch": 21349,
        "meta_bstar": 0.0032418287,
        "meta_mean_motion_dot": 0.00088331,
        "meta_mean_motion_ddot": 0,
        "tle_line1": "1 50404U 82092ADS 25357.03181611  .00088331  00000+0  32418-2 0  9999",
        "tle_line2": "2 50404  82.2023 204.4845 0167782 163.5527 197.1246 15.15350794213498"
      },
      "geometry": {
        "type": "Point",
        "coordinates": [
          -166.63746089269014,
          -52.22037230599248
        ]
      }
    },
    {
      "type": "Feature",
      "properties": {
        "norad_id": 50621,
        "name": "COSMOS 1408 DEB",
        "group": "cosmos-1408-debris",
        "lat": 63.06080479534261,
        "lon": -132.37225400084654,
        "alt_km": 369.95716728745265,
        "timestamp": "2025-12-23T22:42:33.254853+00:00",
        "meta_object_name": "COSMOS 1408 DEB",
        "meta_object_id": "1982-092ALR",
        "meta_epoch": "2025-12-22T15:22:09.683040",
        "meta_mean_motion": 15.5714769,
        "meta_eccentricity": 0.00290758,
        "meta_inclination": 82.5692,
        "meta_ra_of_asc_node": 63.8704,
        "meta_arg_of_pericenter": 116.756,
        "meta_mean_anomaly": 243.6676,
        "meta_ephemeris_type": 0,
        "meta_classification_type": "U",
        "meta_norad_cat_id": 50621,
        "meta_element_set_no": 999,
        "meta_rev_at_epoch": 22404,
        "meta_bstar": 0.00038326529,
        "meta_mean_motion_dot": 0.00028443,
        "meta_mean_motion_ddot": 0,
        "tle_line1": "1 50621U 82092ALR 25356.64038985  .00028443  00000+0  38327-3 0  9995",
        "tle_line2": "2 50621  82.5692  63.8704 0029075 116.7560 243.6676 15.57147690224046"
      },
      "geometry": {
        "type": "Point",
        "coordinates": [
          -132.37225400084654,
          63.06080479534261
        ]
      }
    }
  ]
}